QIANFAN-1               
1 60379U 24140A   25365.57908545  .00000180  00000+0  25920-3 0  9999
2 60379  88.9774 297.3321 0017700 154.5155 205.6873 13.50982305 69897
QIANFAN-2               
1 60380U 24140B   25365.60801733  .00000191  00000+0  27701-3 0  9997
2 60380  88.9761 297.1659 0013831 126.0422 234.2013 13.50986186 69951
QIANFAN-3               
1 60381U 24140C   25365.61617782  .00000182  00000+0  26226-3 0  9999
2 60381  88.9754 297.2962 0014596 138.3169 221.9097 13.50986644 69869
QIANFAN-4               
1 60382U 24140D   25365.59141341  .00000203  00000+0  29583-3 0  9993
2 60382  88.9778 297.2011 0013989 128.6110 231.6296 13.50982401 69983
QIANFAN-5               
1 60383U 24140E   25365.56683607  .00000185  00000+0  26769-3 0  9999
2 60383  88.9753 297.3266 0015506 149.8224 210.3823 13.50984393 69845
QIANFAN-6               
1 60384U 24140F   25365.58742018  .00000197  00000+0  28643-3 0  9990
2 60384  88.9780 297.0758 0013953 134.2301 225.9999 13.50984672 70047
QIANFAN-7               
1 60385U 24140G   25365.59869145  .00001375  00000+0  55164-3 0  9990
2 60385  88.9793 291.5083 0014963 347.7150  12.3677 14.27682507 73082
QIANFAN-8               
1 60386U 24140H   25365.59571397  .00000256  00000+0  37717-3 0  9991
2 60386  88.9781 297.3127 0017332 137.7123 222.5368 13.50986012 69892
